ALOS-2                  
1 39766U 14029A   26169.28893001  .00000856  00000+0  12148-3 0  9999
2 39766  97.9226 266.4363 0001633  91.2515 268.8883 14.79471302651748
KAZEOSAT 2              
1 40010U 14033A   26169.24044226  .00000582  00000+0  73215-4 0  9990
2 40010  97.5396   8.7962 0007766 325.6894  34.3819 14.85470531649118
HODOYOSHI-4             
1 40011U 14033B   26169.31163216  .00000256  00000+0  33391-4 0  9999
2 40011  97.5445 354.0793 0022503 304.6323  55.2773 14.88126906648974
DEIMOS-2                
1 40013U 14033D   26169.25496520  .00001009  00000+0  10048-3 0  9991
2 40013  97.5821  43.7061 0001358  50.7479 309.3861 14.93725877637887
HODOYOSHI-3             
1 40015U 14033F   26168.99337928  .00000784  00000+0  96288-4 0  9999
2 40015  97.6418 332.0013 0032614 354.6636   5.4227 14.85389993647745
SPOT 7                  
1 40053U 14034A   26169.27740228  .00000165  00000+0  42893-4 0  9991
2 40053  98.0627 231.7412 0001233  92.5085 267.6258 14.60958814637293
SKYSAT-B                
1 40072U 14037D   26168.86481540  .00001062  00000+0  12237-3 0  9993
2 40072  98.3839 127.8683 0004183 278.9727  81.1014 14.88029515646068
WORLDVIEW-3 (WV-3)      
1 40115U 14048A   26169.24544918  .00000678  00000+0  85681-4 0  9991
2 40115  97.8567 244.0637 0000897  24.1407 335.9850 14.85023471642069
GAOFEN-2                
1 40118U 14049A   26169.32500042  .00000020  00000+0  95385-5 0  9998
2 40118  98.0107 233.5311 0006196 223.1022 136.9706 14.80897505639404
YAOGAN-21               
1 40143U 14053A   26169.27707556  .00004643  00000+0  18093-3 0  9998
2 40143  97.1467 209.4663 0009988  90.7476 269.4907 15.26385620655129
YAOGAN-22               
1 40275U 14063A   26169.02224975 -.00000061  00000+0 -36349-4 0  9994
2 40275 100.7725 320.3093 0006360 183.3978 176.7091 13.15531044559924
ASNARO                  
1 40298U 14070A   26169.27883939  .00005005  00000+0  23916-3 0  9991
2 40298  97.3452 245.3634 0005734 162.3102 197.8334 15.19446666644171
YAOGAN-24               
1 40310U 14072A   26169.30216053  .00000514  00000+0  81947-4 0  9998
2 40310  98.1495 306.6492 0012522 259.7546 100.2252 14.76224294623886
CBERS 4                 
1 40336U 14079A   26169.29184722 -.00000038  00000+0  16213-5 0  9995
2 40336  98.3529 226.0888 0001794  63.5083 296.6287 14.35508949604114
YAOGAN-26               
1 40362U 14088A   26169.29760014  .00020658  00000+0  40466-3 0  9992
2 40362  97.0639 169.4810 0005952  64.5863 295.6003 15.47391820637879
SMAP                    
1 40376U 15003A   26169.24229011  .00000324  00000+0  71825-4 0  9999
2 40376  98.1276 176.3218 0001338  96.3669 263.7685 14.63367391607774
KOMPSAT-3A              
1 40536U 15014A   26169.27212763  .00020233  00000+0  29273-3 0  9998
2 40536  97.6888 160.7137 0056567 170.5428 189.6904 15.54034981621980
SENTINEL-2A             
1 40697U 15028A   26169.33357381 -.00000077  00000+0 -12916-4 0  9997
2 40697  98.5686 244.1688 0001093  91.7652 268.3656 14.30815117573895
GAOFEN-8                
1 40701U 15030A   26169.31756699  .00010608  00000+0  21928-3 0  9990
2 40701  97.6901   2.7539 0008765 182.4149 177.7058 15.45979472611621
CARBONITE 1 (CBNT-1)    
1 40718U 15032D   26169.26164066  .00001505  00000+0  18851-3 0  9992
2 40718  97.6503 347.2823 0013108 294.3950  65.5896 14.83590557589509
YAOGAN-27               
1 40878U 15040A   26169.24489389  .00000512  00000+0  14608-2 0  9996
2 40878 100.1150 155.5820 0007688 207.7139 152.3566 13.16071359517806
GAOFEN-9 01             
1 40894U 15047A   26169.34465787  .00000808  00000+0  10530-3 0  9997
2 40894  97.6274 204.9869 0028459 134.1848 226.1712 14.82885831580368
YAOGAN-28               
1 41026U 15064A   26169.30543185  .00005315  00000+0  20038-3 0  9991
2 41026  97.3082 307.5438 0010714 179.4080 180.7174 15.27432677590855
YAOGAN-29               
1 41038U 15069A   26169.32476782  .00000567  00000+0  76290-4 0  9995
2 41038  98.0021 197.9598 0002601  53.2859 306.8593 14.83087760570793
KENT RIDGE 1            
1 41167U 15077B   26169.34216294  .00003338  00000+0  10582-3 0  9999
2 41167  14.9786 257.4028 0008234 254.8341 105.1070 15.23138014581273
GAOFEN-4                
1 41194U 15083A   26169.27418483 -.00000340  00000+0  00000+0 0  9993
2 41194   0.3608  83.7399 0004406 115.4347 271.7228  1.00268109 38542
JASON-3                 
1 41240U 16002A   26169.24534816 -.00000044  00000+0  73149-4 0  9993
2 41240  66.0404 123.6103 0008504 272.7673  87.2372 12.87628093487385
SENTINEL-3A             
1 41335U 16011A   26169.26849957  .00000094  00000+0  56985-4 0  9998
2 41335  98.6249 236.6367 0001409 101.6775 258.4564 14.26740305538215
ZIYUAN 3-02 (ZY 3-02)   
1 41556U 16033A   26169.11043694  .00004192  00000+0  18917-3 0  9990
2 41556  97.3833 244.8682 0011150 286.0471  73.9537 15.21488907558126
CARTOSAT-2C             
1 41599U 16040A   26169.31198257  .00003421  00000+0  16560-3 0  9999
2 41599  97.4475 229.2752 0010012 127.4565 232.7582 15.19199004553886
