OBJECT_NAME,OBJECT_ID,EPOCH,MEAN_MOTION,ECCENTRICITY,INCLINATION,RA_OF_ASC_NODE,ARG_OF_PERICENTER,MEAN_ANOMALY,EPHEMERIS_TYPE,CLASSIFICATION_TYPE,NORAD_CAT_ID,ELEMENT_SET_NO,REV_AT_EPOCH,BSTAR,MEAN_MOTION_DOT,MEAN_MOTION_DDOT
ALOS-2,2014-029A,2026-06-18T06:56:03.552864,14.79471302,.00016337,97.9226,266.4363,91.2515,268.8883,0,U,39766,999,65174,.12148311E-3,.856E-5,0
KAZEOSAT 2,2014-033A,2026-06-18T05:46:14.211264,14.85470531,.00077667,97.5396,8.7962,325.6894,34.3819,0,U,40010,999,64911,.732145E-4,.582E-5,0
HODOYOSHI-4,2014-033B,2026-06-18T07:28:45.018624,14.88126906,.00225033,97.5445,354.0793,304.6323,55.2773,0,U,40011,999,64897,.33390822E-4,.256E-5,0
DEIMOS-2,2014-033D,2026-06-18T06:07:08.993280,14.93725877,.00013585,97.5821,43.7061,50.7479,309.3861,0,U,40013,999,63788,.10048167E-3,.1009E-4,0
HODOYOSHI-3,2014-033F,2026-06-17T23:50:27.969792,14.85389993,.0032614,97.6418,332.0013,354.6636,5.4227,0,U,40015,999,64774,.96287563E-4,.784E-5,0
SPOT 7,2014-034A,2026-06-18T06:39:27.556992,14.60958814,.00012333,98.0627,231.7412,92.5085,267.6258,0,U,40053,999,63729,.42893293E-4,.165E-5,0
SKYSAT-B,2014-037D,2026-06-17T20:45:20.050560,14.88029515,.00041832,98.3839,127.8683,278.9727,81.1014,0,U,40072,999,64606,.12236556E-3,.1062E-4,0
WORLDVIEW-3 (WV-3),2014-048A,2026-06-18T05:53:26.809152,14.85023471,.00008974,97.8567,244.0637,24.1407,335.9850,0,U,40115,999,64206,.85681312E-4,.678E-5,0
GAOFEN-2,2014-049A,2026-06-18T07:48:00.036288,14.80897505,.00061967,98.0107,233.5311,223.1022,136.9706,0,U,40118,999,63940,.953846E-5,.2E-6,0
YAOGAN-21,2014-053A,2026-06-18T06:38:59.328384,15.26385620,.00099882,97.1467,209.4663,90.7476,269.4907,0,U,40143,999,65512,.18093058E-3,.4643E-4,0
YAOGAN-22,2014-063A,2026-06-18T00:32:02.378400,13.15531044,.00063609,100.7725,320.3093,183.3978,176.7091,0,U,40275,999,55992,-.36349287E-4,-.61E-6,0
ASNARO,2014-070A,2026-06-18T06:41:31.723296,15.19446666,.00057346,97.3452,245.3634,162.3102,197.8334,0,U,40298,999,64417,.23916358E-3,.5005E-4,0
YAOGAN-24,2014-072A,2026-06-18T07:15:06.669792,14.76224294,.00125224,98.1495,306.6492,259.7546,100.2252,0,U,40310,999,62388,.81946787E-4,.514E-5,0
CBERS 4,2014-079A,2026-06-18T07:00:15.599808,14.35508949,.00017942,98.3529,226.0888,63.5083,296.6287,0,U,40336,999,60411,.1621261E-5,-.38E-6,0
YAOGAN-26,2014-088A,2026-06-18T07:08:32.652096,15.47391820,.00059527,97.0639,169.4810,64.5863,295.6003,0,U,40362,999,63787,.40466195E-3,.20658E-3,0
SMAP,2015-003A,2026-06-18T05:48:53.865504,14.63367391,.00013386,98.1276,176.3218,96.3669,263.7685,0,U,40376,999,60777,.71824829E-4,.324E-5,0
KOMPSAT-3A,2015-014A,2026-06-18T06:31:51.827232,15.54034981,.0056567,97.6888,160.7137,170.5428,189.6904,0,U,40536,999,62198,.29272595E-3,.20233E-3,0
SENTINEL-2A,2015-028A,2026-06-18T08:00:20.777184,14.30815117,.00010938,98.5686,244.1688,91.7652,268.3656,0,U,40697,999,57389,-.12916356E-4,-.77E-6,0
GAOFEN-8,2015-030A,2026-06-18T07:37:17.787936,15.45979472,.00087657,97.6901,2.7539,182.4149,177.7058,0,U,40701,999,61162,.21928459E-3,.10608E-3,0
CARBONITE 1 (CBNT-1),2015-032D,2026-06-18T06:16:45.753024,14.83590557,.00131081,97.6503,347.2823,294.3950,65.5896,0,U,40718,999,58950,.18850615E-3,.1505E-4,0
YAOGAN-27,2015-040A,2026-06-18T05:52:38.832096,13.16071359,.00076888,100.1150,155.5820,207.7139,152.3566,0,U,40878,999,51780,.14607795E-2,.512E-5,0
GAOFEN-9 01,2015-047A,2026-06-18T08:16:18.439968,14.82885831,.00284596,97.6274,204.9869,134.1848,226.1712,0,U,40894,999,58036,.10530036E-3,.808E-5,0
YAOGAN-28,2015-064A,2026-06-18T07:19:49.311840,15.27432677,.00107144,97.3082,307.5438,179.4080,180.7174,0,U,41026,999,59085,.20037764E-3,.5315E-4,0
YAOGAN-29,2015-069A,2026-06-18T07:47:39.939648,14.83087760,.00026018,98.0021,197.9598,53.2859,306.8593,0,U,41038,999,57079,.76289561E-4,.567E-5,0
KENT RIDGE 1,2015-077B,2026-06-18T08:12:42.878016,15.23138014,.00082346,14.9786,257.4028,254.8341,105.1070,0,U,41167,999,58127,.10582153E-3,.3338E-4,0
GAOFEN-4,2015-083A,2026-06-18T06:34:49.569312,1.00268109,.0004406,0.3608,83.7399,115.4347,271.7228,0,U,41194,999,3854,0,-.34E-5,0
JASON-3,2016-002A,2026-06-18T05:53:18.081024,12.87628093,.00085046,66.0404,123.6103,272.7673,87.2372,0,U,41240,999,48738,.73149391E-4,-.44E-6,0
SENTINEL-3A,2016-011A,2026-06-18T06:26:38.362848,14.26740305,.00014099,98.6249,236.6367,101.6775,258.4564,0,U,41335,999,53821,.56985095E-4,.94E-6,0
ZIYUAN 3-02 (ZY 3-02),2016-033A,2026-06-18T02:39:01.751616,15.21488907,.00111509,97.3833,244.8682,286.0471,73.9537,0,U,41556,999,55812,.18916846E-3,.4192E-4,0
CARTOSAT-2C,2016-040A,2026-06-18T07:29:15.294048,15.19199004,.00100124,97.4475,229.2752,127.4565,232.7582,0,U,41599,999,55388,.1656025E-3,.3421E-4,0
